#aP1999  2  1  0  0  0.00000000      96 ORBIT ITR96 HLM  IGS
##  995  86400.00000000   900.00000000 51210 0.0000000000000
+   27     1  2  3  4  5  6  7  8  9 10 13 14 15 16 17 18 19
+         21 22 23 24 25 26 27 29 30 31  0  0  0  0  0  0  0
+          0  0  0  0  0  0  0  0  0  0  0  0  0  0  0  0  0
+          0  0  0  0  0  0  0  0  0  0  0  0  0  0  0  0  0
+          0  0  0  0  0  0  0  0  0  0  0  0  0  0  0  0  0
++         5  4  4  4  4  4  5  4  4  4  4  5  4  7  4  6  5
++         4  4  6  4  4  5  4  5  4  5  0  0  0  0  0  0  0
++         0  0  0  0  0  0  0  0  0  0  0  0  0  0  0  0  0
++         0  0  0  0  0  0  0  0  0  0  0  0  0  0  0  0  0
++         0  0  0  0  0  0  0  0  0  0  0  0  0  0  0  0  0
%c cc cc ccc ccc cccc cccc cccc cccc ccccc ccccc ccccc ccccc
%c cc cc ccc ccc cccc cccc cccc cccc ccccc ccccc ccccc ccccc
%f  0.0000000  0.000000000  0.00000000000  0.000000000000000
%f  0.0000000  0.000000000  0.00000000000  0.000000000000000
%i    0    0    0    0      0      0      0      0         0
%i    0    0    0    0      0      0      0      0         0
/* FINAL ORBIT COMBINATION FROM WEIGHTED AVERAGE OF:
/* cod emr esa gfz jpl ngs sio                              
/* REFERENCED TO GPS CLOCK AND TO WEIGHTED MEAN POLE:       
/* CLK ANT Z-OFFSET (M): II/IIA 1.023; IIR 0.000            
*  1999  2  1  2 30  0.0000
P  1 -21018.609304  16223.696355    415.488609     72.968416
P  2  13041.728110 -10245.715693 -20156.049235    -19.558693
P  3  -8523.258771  20598.865019 -14496.764272     90.136008
P  4  14009.493466  -9285.555392  20721.043079    458.308430
P  5 -12105.826972 -20958.319662  11022.742017    183.593444
P  6 -19919.515603   -632.241118  17812.601414     -0.408711
P  7  20775.806599 -16264.857790   -792.788122    807.787670
P  8 -24186.665960 -10830.849582   -619.311829    716.630280
P  9 -17939.646612 -16014.837095 -11792.157371    -29.147405
P 10    609.856556 -25693.304909   6394.061540     31.838976
P 13  20561.638741 -16771.017404   -520.423965   -473.280837
P 14  12070.907215  18278.650319  14989.222278     13.481735
P 15  18205.846771  16316.974297 -10617.210548    647.585607
P 16  15026.651645   6205.895786  21014.814434     99.828027
P 17 -24563.165678  -5822.889588  -9112.048279   -202.112208
P 18  20436.417929  -1720.179817  16685.269540     21.358094
P 19  25805.529823   6076.193232  -2893.991549   -103.009945
P 21 -11542.107761  13408.257492 -19387.943406      5.888725
P 22  -3295.473839  23849.241641  10453.040139     93.801518
P 23 -14883.170879   -611.881858 -21601.542970      9.224750
P 24  -1714.804853 -16073.262868  21363.940163    472.849665
P 25 -13507.064414  11041.857305  20122.377695      0.096549
P 26  -3987.446346 -15552.931616 -21028.638437    118.432710
P 27  21769.058610  -3814.511626 -15098.572515     10.031365
P 29 -19721.631054  17636.217577   1446.552483    182.777278
P 30 -15621.503735  -8334.025161  19624.457442     -6.558969
P 31   4094.104729  15842.100214 -21059.531961     12.988792
*  1999  2  1  2 45  0.0000
P  1 -21083.678074  15933.938531  -2431.980715     72.873615
P  2  13712.722005  -7876.452854 -20800.566131    -19.444236
P  3  -9818.612997  21442.060035 -12282.536295     90.206800
P  4  16107.038694  -8406.850094  19547.589522    458.318478
P  5 -12076.780296 -22111.146466   8524.428443    183.583740
P  6 -18381.436939  -2055.265813  19285.457022     -0.474132
P  7  20750.920536 -15859.261571  -3641.892986    807.688546
P  8 -23901.068002 -11010.247337  -3461.939300    716.585620
P  9 -16496.678911 -15747.119585 -14033.538418    -29.196491
P 10    992.167047 -24862.269492   9088.788023     31.865955
P 13  20652.332480 -16512.305314   2336.579579   -473.256114
P 14  12116.085211  19874.236170  12754.049674     13.563450
P 15  16930.495964  15941.422470 -13066.064548    647.588748
P 16  15259.189709   8540.852285  20020.200383     99.847864
P 17 -25280.803379  -6318.462375  -6420.038314   -202.074689
P 18  19045.687987   -211.447150  18310.001234     21.234350
P 19  25883.795983   6446.279699   -126.368126   -102.933933
P 21 -12069.927060  11125.157806 -20525.373647      5.856301
P 22  -3900.174215  22574.452250  12823.340286     93.853905
P 23 -15199.055026  -3121.604171 -21191.936961      9.155365
P 24    550.462116 -15229.405849  22034.887506    472.878161
P 25 -15589.241861  10257.890729  18967.142897      0.077782
P 26  -2101.388256 -16997.986921 -20120.057157    118.538641
P 27  23228.559511  -3127.451883 -12997.626013      9.877642
P 29 -19890.538849  17416.626756  -1409.949258    182.912061
P 30 -15898.873666 -10529.475724  18315.639709     -6.281610
P 31   2277.833702  17297.965276 -20133.714117     13.004164
*  1999  2  1  3  0  0.0000
P  1 -20927.321075  15431.501855  -5237.479344     72.908882
P  2  14506.875053  -5494.833118 -21069.229156    -19.467230
P  3 -10884.693800  22164.469778  -9857.634531     90.003146
P  4  18105.145615  -7690.711168  18042.542545    458.344389
P  5 -12025.643077 -22984.935915   5880.011021    183.722120
P  6 -16810.213912  -3656.702087  20432.399611     -0.570857
P  7  20518.227023 -15225.742222  -6426.926371    807.585150
P  8 -23323.477793 -11103.629667  -6244.889769    716.683925
P  9 -14812.665499 -15487.873548 -16039.227699    -29.102826
P 10   1488.316792 -23764.096372  11625.852298     31.905919
P 13  20523.607689 -16037.086718   5153.305053   -473.413519
P 14  12196.430458  21203.892719  10298.916930     13.452452
P 15  15389.423957  15548.360769 -15292.919283    647.590309
P 16  15592.373069  10728.594828  18681.927961     99.896753
P 17 -25739.806042  -6658.331863  -3620.916757   -202.118970
P 18  17614.233637   1485.541050  19614.633703     21.220314
P 19  25676.891664   6742.886391   2643.408477   -103.187068
P 21 -12739.883801   8770.802220 -21298.334960      5.869457
P 22  -4633.954818  21082.011143  14965.159468     93.793373
P 23 -15633.465276  -5539.867096 -20405.289182      9.164511
P 24   2912.291395 -14499.528968  22336.392271    472.949150
P 25 -17565.502609   9609.026737  17487.295481      0.102039
P 26   -378.426866 -18455.919032 -18859.862870    118.615889
P 27  24479.588594  -2579.519065 -10678.921032     10.059680
P 29 -19842.288533  16976.889237  -4241.933338    182.777865
P 30 -16243.782611 -12545.456140  16687.357223     -6.319164
P 31    624.338454  18760.980293 -18864.615955     13.044950
*  1999  2  1  3 15  0.0000
P  1 -20580.286433  14695.363687  -7952.451108     72.948079
P  2  15412.705639  -3149.519753 -20958.690045    -19.453432
P  3 -11726.182394  22726.861100  -7263.605910     90.171311
P  4  19957.714694  -7130.187452  16231.587103    458.307057
P  5 -11916.037581 -23573.804573   3134.828420    183.747639
P  6 -15247.552251  -5417.882083  21233.628431     -0.366230
P  7  20110.958822 -14346.877104  -9098.612022    807.719674
P  8 -22454.109361 -11148.887227  -8920.576384    716.739031
P  9 -12911.714971 -15270.177224 -17775.264357    -29.227340
P 10   2124.895739 -22430.199156  13961.415266     31.976737
P 13  20207.184055 -15324.960403   7881.251304   -473.288832
P 14  12274.647954  22248.176752   7666.149712     13.487810
P 15  13603.030187  15176.919879 -17260.471955    647.593875
P 16  16000.317605  12729.650770  17023.392264     99.988986
P 17 -25915.816767  -6873.811651   -761.353906   -202.233730
P 18  16183.848439   3350.944734  20575.757737     21.313719
P 19  25180.226571   7000.080882   5368.293675   -102.999048
P 21 -13549.999697   6396.182482 -21694.824252      5.993139
P 22  -5513.063116  19410.679739  16840.709605     93.826898
P 23 -16166.414324  -7820.077216 -19256.850641      9.049936
P 24   5324.965527 -13902.364240  22263.291832    472.936652
P 25 -19392.461836   9086.354962  15707.321451      0.285499
P 26   1159.882735 -19883.442589 -17268.862930    118.579535
P 27  25491.129913  -2148.255852  -8181.911388      9.999973
P 29 -19607.100455  16295.555417  -7000.028230    182.812265
P 30 -16626.279042 -14348.803168  14768.376645     -6.409484
P 31   -847.148261  20188.753573 -17272.825524     12.983129
*  1999  2  1  3 30  0.0000
P  1 -20078.120988  13711.955834 -10529.753961     72.993395
P  2  16411.319744   -886.386721 -20472.722220    -19.498798
P  3 -12355.582276  23093.166144  -4544.917076     90.082216
P  4  21621.868266  -6710.466026  14145.497285    458.357953
P  5 -11712.101910 -23880.256919    335.929202    183.634438
P  6 -13732.096867  -7312.742026  21675.045788     -0.358080
P  7  19566.616712 -13213.345801 -11609.482909    807.644227
P  8 -21301.809612 -11183.936242 -11443.607883    716.646407
P  9 -10824.699332 -15122.880688 -19212.038618    -29.226041
P 10   2922.147641 -20898.158938  16055.232645     31.824355
P 13  19739.400914 -14363.057421  10473.517710   -473.286374
P 14  12311.498147  22996.388477   4901.151036     13.565483
P 15  11599.556581  14862.666111 -18935.888267    647.599407
P 16  16451.397301  14510.807515  15073.389422     99.832497
P 17 -25792.157995  -7000.393229   2110.921359   -202.221992
P 18  14793.374623   5357.303693  21176.015866     21.361725
P 19  24397.306189   7252.481010   8002.027954   -103.198520
P 21 -14489.995502   4051.421741 -21709.750782      5.793450
P 22  -6546.509045  17603.419592  18417.214020     93.922867
P 23 -16771.015090  -9920.937004 -17768.336095      9.284793
P 24   7740.129055 -13448.707383  21816.542114    472.924049
P 25 -21030.089598   8673.903970  13656.998524      0.036319
P 26   2500.049507 -21235.294445 -15373.944610    118.733325
P 27  26238.340917  -1806.010735  -5548.682536      9.813495
P 29 -19220.052694  15358.740918  -9635.960555    182.847734
P 30 -17012.104248 -15913.503294  12592.503360     -6.395895
P 31  -2125.239952  21537.128901 -15384.574120     12.979419
EOF
